[{"OBJECT_NAME":"STARLINK-30481","OBJECT_ID":"2023-146J","EPOCH":"2026-03-09T22:00:01.999584","MEAN_MOTION":15.08687801,"ECCENTRICITY":0.00016647,"INCLINATION":42.9998,"RA_OF_ASC_NODE":311.9974,"ARG_OF_PERICENTER":260.7497,"MEAN_ANOMALY":28.8747,"EPHEMERIS_TYPE":0,"CLASSIFICATION_TYPE":"U","NORAD_CAT_ID":57899,"ELEMENT_SET_NO":999,"REV_AT_EPOCH":577,"BSTAR":0.09858141,"MEAN_MOTION_DOT":0.01723889,"MEAN_MOTION_DDOT":0},{"OBJECT_NAME":"LEMUR-2-LANGER2SPACE","OBJECT_ID":"2025-061H","EPOCH":"2026-03-09T22:29:21.653952","MEAN_MOTION":15.13463796,"ECCENTRICITY":0.00153346,"INCLINATION":97.5541,"RA_OF_ASC_NODE":45.3892,"ARG_OF_PERICENTER":237.418,"MEAN_ANOMALY":122.5571,"EPHEMERIS_TYPE":0,"CLASSIFICATION_TYPE":"U","NORAD_CAT_ID":63358,"ELEMENT_SET_NO":999,"REV_AT_EPOCH":5260,"BSTAR":0.00035148431,"MEAN_MOTION_DOT":6.238e-5,"MEAN_MOTION_DDOT":0}]
